OBJECT_NAME,OBJECT_ID,EPOCH,MEAN_MOTION,ECCENTRICITY,INCLINATION,RA_OF_ASC_NODE,ARG_OF_PERICENTER,MEAN_ANOMALY,EPHEMERIS_TYPE,CLASSIFICATION_TYPE,NORAD_CAT_ID,ELEMENT_SET_NO,REV_AT_EPOCH,BSTAR,MEAN_MOTION_DOT,MEAN_MOTION_DDOT
TIANMU-1 20,2023-208B,2026-06-18T22:57:44.584128,15.32785886,.00058849,97.4452,286.9027,326.6219,33.4651,0,U,58661,999,13769,.19936686E-3,.6235E-4,0
TIANMU-1 21,2023-208C,2026-06-18T22:37:07.170240,15.35101940,.00058516,97.4511,289.5762,316.2849,43.7930,0,U,58662,999,13783,.22133323E-3,.7461E-4,0
TIANMU-1 22,2023-208D,2026-06-18T23:14:00.060864,15.31077860,.00030341,97.4506,286.2114,357.2175,2.9049,0,U,58663,999,13760,.19208743E-3,.5689E-4,0
TIANMU-1 15,2024-004A,2026-06-18T23:58:30.235584,15.27038309,.00065086,97.4670,356.1892,356.0496,4.0690,0,U,58700,999,13605,.16704759E-3,.4358E-4,0
TIANMU-1 16,2024-004B,2026-06-18T23:43:28.497792,15.26763243,.00056365,97.4617,355.4136,1.7098,358.4159,0,U,58701,999,13605,.16882037E-3,.4368E-4,0
TIANMU-1 17,2024-004C,2026-06-18T23:22:31.765728,15.26762244,.00053449,97.4644,355.8846,8.2969,351.8357,0,U,58702,999,13604,.16525375E-3,.4274E-4,0
TIANMU-1 18,2024-004D,2026-06-18T22:48:05.901984,15.27019499,.00038523,97.4662,356.1174,9.7695,350.3618,0,U,58703,999,13604,.16129217E-3,.4202E-4,0
INSAT-3DS,2024-033A,2026-06-18T21:52:00.664320,1.00271106,.00010946,0.0456,107.1202,328.7009,241.4219,0,U,58990,999,4708,0,-.162E-5,0
METEOR-M2 4,2024-039A,2026-06-19T00:17:45.000096,14.22429686,.00073897,98.7017,129.2874,155.9393,204.2131,0,U,59051,999,11952,.21826549E-4,.5E-7,0
GOES 19,2024-119A,2026-06-18T21:07:12.253152,1.00270782,.00003563,0.0404,169.7841,2.6087,336.3285,0,U,60133,999,698,0,-.254E-5,0
MTG-S1,2025-143A,2026-06-18T09:28:59.335680,1.00323776,.00039932,0.6020,339.2639,77.2395,348.9838,0,U,64723,999,343,0,-.28E-6,0
METOP-SGA1,2025-172A,2026-06-16T03:40:47.624736,14.21509720,.0000902,98.6644,226.8998,93.8213,266.3067,0,U,65159,999,4364,.41999845E-4,.49E-6,0
FENGYUN 3H,2025-219A,2026-06-18T19:15:54.339264,14.19920662,.00015953,98.6768,110.5405,75.8667,284.2687,0,U,65815,999,3761,.38694404E-4,.39E-6,0
