TIANMU-1 20             
1 58661U 23208B   26169.95676602  .00006235  00000+0  19937-3 0  9993
2 58661  97.4452 286.9027 0005884 326.6219  33.4651 15.32785886137698
TIANMU-1 21             
1 58662U 23208C   26169.94244410  .00007461  00000+0  22133-3 0  9995
2 58662  97.4511 289.5762 0005851 316.2849  43.7930 15.35101940137834
TIANMU-1 22             
1 58663U 23208D   26169.96805626  .00005689  00000+0  19209-3 0  9990
2 58663  97.4506 286.2114 0003034 357.2175   2.9049 15.31077860137604
TIANMU-1 15             
1 58700U 24004A   26169.99896106  .00004358  00000+0  16705-3 0  9993
2 58700  97.4670 356.1892 0006508 356.0496   4.0690 15.27038309136053
TIANMU-1 16             
1 58701U 24004B   26169.98852428  .00004368  00000+0  16882-3 0  9999
2 58701  97.4617 355.4136 0005636   1.7098 358.4159 15.26763243136058
TIANMU-1 17             
1 58702U 24004C   26169.97397877  .00004274  00000+0  16525-3 0  9991
2 58702  97.4644 355.8846 0005344   8.2969 351.8357 15.26762244136042
TIANMU-1 18             
1 58703U 24004D   26169.95006831  .00004202  00000+0  16129-3 0  9998
2 58703  97.4662 356.1174 0003852   9.7695 350.3618 15.27019499136047
INSAT-3DS               
1 58990U 24033A   26169.91111880 -.00000162  00000+0  00000+0 0  9994
2 58990   0.0456 107.1202 0001094 328.7009 241.4219  1.00271106 47084
METEOR-M2 4             
1 59051U 24039A   26170.01232639  .00000005  00000+0  21827-4 0  9998
2 59051  98.7017 129.2874 0007389 155.9393 204.2131 14.22429686119524
GOES 19                 
1 60133U 24119A   26169.88000293 -.00000254  00000+0  00000+0 0  9994
2 60133   0.0404 169.7841 0000356   2.6087 336.3285  1.00270782  6986
MTG-S1                  
1 64723U 25143A   26169.39513120 -.00000028  00000+0  00000+0 0  9994
2 64723   0.6020 339.2639 0003993  77.2395 348.9838  1.00323776  3436
METOP-SGA1              
1 65159U 25172A   26167.15332899  .00000049  00000+0  42000-4 0  9997
2 65159  98.6644 226.8998 0000902  93.8213 266.3067 14.21509720 43644
FENGYUN 3H              
1 65815U 25219A   26169.80271226  .00000039  00000+0  38694-4 0  9991
2 65815  98.6768 110.5405 0001595  75.8667 284.2687 14.19920662 37610
